CCSDS_OEM_VERS = 1.0
CREATION_DATE  = 2017-05-11T11:13:40
ORIGINATOR     = GMAT USER

META_START
OBJECT_NAME          = MOPSSat_alt_35785_km_RAAN_90_045
OBJECT_ID            = SatId
CENTER_NAME          = Earth
REF_FRAME            = EME2000
TIME_SYSTEM          = UTC
START_TIME           = 2017-01-01T00:00:00.000
USEABLE_START_TIME   = 2017-01-01T00:00:00.000
USEABLE_STOP_TIME    = 2017-01-02T00:00:00.000
STOP_TIME            = 2017-01-02T00:00:00.000
INTERPOLATION        = Lagrange
INTERPOLATION_DEGREE = 7 
META_STOP


                                                                                   

2017-01-01T00:27:30.000  -5.060973957351533e+03   4.185915709240314e+04   9.333536418681873e-02  -3.052444656160386e+00  -3.690600227035808e-01   5.937939739973472e-05
2017-01-01T00:27:40.000  -5.091497055498942e+03   4.185545536293684e+04   9.392932261873184e-02  -3.052174764287040e+00  -3.712858452050842e-01   5.941228631818344e-05
2017-01-01T00:27:50.000  -5.122017446919515e+03   4.185173137619442e+04   9.452360982991520e-02  -3.051903249325493e+00  -3.735114702677256e-01   5.944515205119920e-05
2017-01-01T00:28:00.000  -5.152535115383040e+03   4.184798513415579e+04   9.511822558834090e-02  -3.051630111420053e+00  -3.757368967080171e-01   5.947799456273415e-05
2017-01-01T00:28:10.000  -5.183050044644700e+03   4.184421663881393e+04   9.571316966131868e-02  -3.051355350715984e+00  -3.779621233414066e-01   5.951081381673262e-05
2017-01-01T00:28:20.000  -5.213562218152049e+03   4.184042589221423e+04   9.630844180973218e-02  -3.051078967362368e+00  -3.801871489609078e-01   5.954360977683553e-05
2017-01-01T00:28:30.000  -5.244071619439869e+03   4.183661289640286e+04   9.690404179578532e-02  -3.050800961508338e+00  -3.824119723658956e-01   5.957638240678527e-05
2017-01-01T00:28:40.000  -5.274578231974582e+03   4.183277765344655e+04   9.749996937995670e-02  -3.050521333304540e+00  -3.846365923507598e-01   5.960913167026535e-05
2017-01-01T00:28:50.000  -5.305082039842710e+03   4.182892016534647e+04   9.809622433444537e-02  -3.050240082896830e+00  -3.868610077551094e-01   5.964185753162066e-05
2017-01-01T00:29:00.000  -5.335583027062408e+03   4.182504043412417e+04   9.869280642972826e-02  -3.049957210432552e+00  -3.890852174135674e-01   5.967455995513711e-05
2017-01-01T00:29:10.000  -5.366081177739184e+03   4.182113846180263e+04   9.928971543759363e-02  -3.049672716059158e+00  -3.913092201671264e-01   5.970723890520242e-05
2017-01-01T00:29:20.000  -5.396576475670516e+03   4.181721425045372e+04   9.988695112345550e-02  -3.049386599927658e+00  -3.935330148343175e-01   5.973989434589881e-05
2017-01-01T00:29:30.000  -5.427068904639530e+03   4.181326780216373e+04   1.004845132520471e-01  -3.049098862190123e+00  -3.957566002326240e-01   5.977252624130145e-05
2017-01-01T00:29:40.000  -5.457558448414834e+03   4.180929911903227e+04   1.010824015874390e-01  -3.048809502999587e+00  -3.979799751784710e-01   5.980513455548405e-05
2017-01-01T00:29:50.000  -5.488045090457750e+03   4.180530820321327e+04   1.016806158872471e-01  -3.048518522513050e+00  -4.002031384658754e-01   5.983771925218926e-05
2017-01-01T00:30:00.000  -5.518528814316838e+03   4.180129505686092e+04   1.022791559104169e-01  -3.048225920887522e+00  -4.024260888952151e-01   5.987028029526728e-05
2017-01-01T00:30:10.000  -5.549009603472437e+03   4.179725968215048e+04   1.028780214141632e-01  -3.047931698281564e+00  -4.046488252618933e-01   5.990281764850341e-05
2017-01-01T00:30:20.000  -5.579487442024541e+03   4.179320208118742e+04   1.034772121674818e-01  -3.047635854848638e+00  -4.068713464064995e-01   5.993533127637140e-05
2017-01-01T00:30:30.000  -5.609962314004905e+03   4.178912225609819e+04   1.040767279376409e-01  -3.047338390743737e+00  -4.090936511646478e-01   5.996782114327996e-05
2017-01-01T00:30:40.000  -5.640434203532651e+03   4.178502020900998e+04   1.046765684932294e-01  -3.047039306121914e+00  -4.113157383783221e-01   6.000028721374609e-05
2017-01-01T00:30:50.000  -5.670903094419199e+03   4.178089594210099e+04   1.052767335964333e-01  -3.046738601141934e+00  -4.135376068670684e-01   6.003272945195271e-05
2017-01-01T00:31:00.000  -5.701368970461707e+03   4.177674945756386e+04   1.058772230087574e-01  -3.046436275963621e+00  -4.157592554493921e-01   6.006514782208263e-05
2017-01-01T00:31:10.000  -5.731831815442909e+03   4.177258075760470e+04   1.064780364910434e-01  -3.046132330747776e+00  -4.179806829427467e-01   6.009754228831106e-05
2017-01-01T00:31:20.000  -5.762291612838609e+03   4.176838984448597e+04   1.070791737976501e-01  -3.045826765659313e+00  -4.202018881422044e-01   6.012991281451467e-05
2017-01-01T00:31:30.000  -5.792748346211858e+03   4.176417672046969e+04   1.076806346842753e-01  -3.045519580863111e+00  -4.224228698491974e-01   6.016225936467086e-05
2017-01-01T00:31:40.000  -5.823201999054671e+03   4.175994138783996e+04   1.082824189048217e-01  -3.045210776525661e+00  -4.246436268599796e-01   6.019458190269577e-05
2017-01-01T00:31:50.000  -5.853652555486791e+03   4.175568384880575e+04   1.088845262252039e-01  -3.044900352807976e+00  -4.268641580165799e-01   6.022688039317089e-05
2017-01-01T00:32:00.000  -5.884099999555160e+03   4.175140410559808e+04   1.094869564095092e-01  -3.044588309872676e+00  -4.290844621557170e-01   6.025915480061407e-05
2017-01-01T00:32:10.000  -5.914544315414779e+03   4.174710216044519e+04   1.100897092235674e-01  -3.044274647882182e+00  -4.313045381219908e-01   6.029140508966756e-05
2017-01-01T00:32:20.000  -5.944985486842264e+03   4.174277801563869e+04   1.106927844253626e-01  -3.043959367003532e+00  -4.335243847324078e-01   6.032363122458977e-05
2017-01-01T00:32:30.000  -5.975423497637350e+03   4.173843167347940e+04   1.112961817729396e-01  -3.043642467404432e+00  -4.357440008056596e-01   6.035583316967468e-05
2017-01-01T00:32:40.000  -6.005858331533253e+03   4.173406313628924e+04   1.118999010226416e-01  -3.043323949254134e+00  -4.379633851555882e-01   6.038801088915762e-05
2017-01-01T00:32:50.000  -6.036289972221272e+03   4.172967240640951e+04   1.125039419295675e-01  -3.043003812723299e+00  -4.401825365929774e-01   6.042016434724336e-05
2017-01-01T00:33:00.000  -6.066718403380894e+03   4.172525948619511e+04   1.131083042481937e-01  -3.042682057983586e+00  -4.424014539277500e-01   6.045229350813451e-05
2017-01-01T00:33:10.000  -6.097143608690809e+03   4.172082437801327e+04   1.137129877325892e-01  -3.042358685207540e+00  -4.446201359697712e-01   6.048439833604571e-05
2017-01-01T00:33:20.000  -6.127565571937838e+03   4.171636708422819e+04   1.143179921385678e-01  -3.042033694567500e+00  -4.468385815367901e-01   6.051647879530823e-05
2017-01-01T00:33:30.000  -6.157984276944248e+03   4.171188760721091e+04   1.149233172222596e-01  -3.041707086236295e+00  -4.490567894491413e-01   6.054853485030450e-05
2017-01-01T00:33:40.000  -6.188399707567820e+03   4.170738594933939e+04   1.155289627401086e-01  -3.041378860387259e+00  -4.512747585297491e-01   6.058056646546346e-05
2017-01-01T00:33:50.000  -6.218811847774224e+03   4.170286211298693e+04   1.161349284503288e-01  -3.041049017193390e+00  -4.534924876094042e-01   6.061257360535286e-05
2017-01-01T00:34:00.000  -6.249220681528361e+03   4.169831610053893e+04   1.167412141107296e-01  -3.040717556828570e+00  -4.557099755188417e-01   6.064455623454815e-05
2017-01-01T00:34:10.000  -6.279626192783422e+03   4.169374791439476e+04   1.173478194784945e-01  -3.040384479467691e+00  -4.579272210879432e-01   6.067651431762768e-05
2017-01-01T00:34:20.000  -6.310028365450417e+03   4.168915755697076e+04   1.179547443095970e-01  -3.040049785286893e+00  -4.601442231435134e-01   6.070844781912056e-05
2017-01-01T00:34:30.000  -6.340427183374125e+03   4.168454503070577e+04   1.185619883582922e-01  -3.039713474463947e+00  -4.623609805075269e-01   6.074035670350176e-05
2017-01-01T00:34:40.000  -6.370822630422412e+03   4.167991033804671e+04   1.191695513789118e-01  -3.039375547177219e+00  -4.645774920036426e-01   6.077224093527833e-05
2017-01-01T00:34:50.000  -6.401214690086055e+03   4.167525348151191e+04   1.197774331178280e-01  -3.039036003610285e+00  -4.667937564280202e-01   6.080410047859036e-05
2017-01-01T00:35:00.000  -6.431603345963765e+03   4.167057446361499e+04   1.203856333231852e-01  -3.038694843946370e+00  -4.690097725846909e-01   6.083593529769910e-05
2017-01-01T00:35:10.000  -6.461988581581796e+03   4.166587328689291e+04   1.209941517412850e-01  -3.038352068370404e+00  -4.712255392724010e-01   6.086774535680516e-05
2017-01-01T00:35:20.000  -6.492370381092926e+03   4.166114995379798e+04   1.216029881305798e-01  -3.038007677061147e+00  -4.734410553355851e-01   6.089953062076186e-05
2017-01-01T00:35:30.000  -6.522748728579236e+03   4.165640446680540e+04   1.222121422477178e-01  -3.037661670199028e+00  -4.756563196135216e-01   6.093129105436345e-05
2017-01-01T00:35:40.000  -6.553123608210150e+03   4.165163682838931e+04   1.228216138506990e-01  -3.037314047964395e+00  -4.778713309518589e-01   6.096302662250453e-05
2017-01-01T00:35:50.000  -6.583495003848589e+03   4.164684704108141e+04   1.234314026910262e-01  -3.036964810541797e+00  -4.800860881738938e-01   6.099473728978418e-05
2017-01-01T00:36:00.000  -6.613862899343536e+03   4.164203510742830e+04   1.240415085195200e-01  -3.036613958116870e+00  -4.823005901019063e-01   6.102642302079584e-05
2017-01-01T00:36:10.000  -6.644227278529836e+03   4.163720102999027e+04   1.246519310863368e-01  -3.036261490876244e+00  -4.845148355571458e-01   6.105808378013300e-05
2017-01-01T00:36:20.000  -6.674588124936726e+03   4.163234481139069e+04   1.252626701350574e-01  -3.035907409011151e+00  -4.867288233385750e-01   6.108971953206907e-05
2017-01-01T00:36:30.000  -6.704945422180638e+03   4.162746645425059e+04   1.258737254106326e-01  -3.035551712712654e+00  -4.889425522515164e-01   6.112133024098324e-05
